{"type":"FeatureCollection", "features": [
{"type":"Feature","geometry":{"type":"Polygon","coordinates":[[[35.0177,0.8875],[34.985,0.8816],[34.9855,0.8865],[34.9647,0.8793],[34.9584,0.8721],[34.9476,0.8695],[34.9416,0.8699],[34.9339,0.8551],[34.9273,0.8544],[34.9184,0.8481],[34.9121,0.8459],[34.8689,0.8256],[34.8083,0.8043],[34.811,0.8139],[34.811,0.8208],[34.808,0.8268],[34.8039,0.8443],[34.7977,0.8502],[34.7949,0.8581],[34.7956,0.8655],[34.7856,0.889],[34.7915,0.8985],[34.7992,0.9037],[34.798,0.91],[34.7849,0.9231],[34.7769,0.9237],[34.7678,0.9203],[34.7386,0.9373],[34.6937,0.9978],[34.6911,1.0042],[34.6596,1.0527],[34.6535,1.0584],[34.6639,1.0838],[34.6532,1.085],[34.6433,1.0909],[34.6323,1.0946],[34.6126,1.1097],[34.5808,1.1503],[34.5803,1.1503],[34.5775,1.1001],[34.5277,1.1216],[34.5283,1.1088],[34.5221,1.0991],[34.5189,1.089],[34.5152,1.0823],[34.5035,1.0698],[34.5033,1.0669],[34.4971,1.0545],[34.4924,1.0388],[34.4886,1.0179],[34.4866,0.9934],[34.4881,0.9837],[34.4799,0.9523],[34.4782,0.9372],[34.4645,0.9132],[34.4587,0.9088],[34.4558,0.9037],[34.4504,0.9016],[34.4511,0.8904],[34.4464,0.8784],[34.447,0.871],[34.4455,0.8636],[34.4411,0.8585],[34.4233,0.8529],[34.4175,0.8437],[34.4143,0.836],[34.406,0.8293],[34.4122,0.8187],[34.4112,0.811],[34.4013,0.8077],[34.396,0.8039],[34.3923,0.806],[34.3848,0.8043],[34.3831,0.7971],[34.3752,0.7968],[34.3703,0.785],[34.3605,0.7784],[34.3707,0.7724],[34.3823,0.7741],[34.3861,0.7678],[34.3937,0.7594],[34.3995,0.7566],[34.406,0.7571],[34.4102,0.7622],[34.4115,0.7673],[34.4241,0.7671],[34.4245,0.7597],[34.433,0.7443],[34.4337,0.7394],[34.4315,0.7264],[34.4225,0.7316],[34.4135,0.7301],[34.4041,0.7252],[34.4157,0.69],[34.4093,0.6813],[34.4171,0.6596],[34.3935,0.6493],[34.392,0.6463],[34.3831,0.6439],[34.3837,0.6334],[34.3793,0.6252],[34.3789,0.613],[34.3756,0.6067],[34.3696,0.604],[34.3701,0.5902],[34.377,0.5788],[34.3726,0.5686],[34.3683,0.5618],[34.378,0.5508],[34.3839,0.5418],[34.389,0.5399],[34.3932,0.5339],[34.4001,0.5199],[34.4074,0.5105],[34.4086,0.5046],[34.4007,0.4995],[34.39,0.4992],[34.3859,0.4954],[34.3852,0.4907],[34.3901,0.4689],[34.3921,0.4679],[34.4045,0.4752],[34.409,0.4762],[34.4202,0.4748],[34.4341,0.4641],[34.4402,0.4635],[34.4458,0.4677],[34.4596,0.4689],[34.4702,0.4792],[34.4834,0.4842],[34.4916,0.4737],[34.4946,0.4675],[34.4951,0.4604],[34.5017,0.4557],[34.5078,0.4541],[34.5147,0.4496],[34.5231,0.4476],[34.5323,0.4428],[34.5375,0.4536],[34.538,0.4611],[34.5513,0.4699],[34.5627,0.4578],[34.5771,0.4561],[34.58,0.4537],[34.5813,0.4453],[34.5803,0.44],[34.5814,0.4301],[34.5871,0.4257],[34.5924,0.4278],[34.5904,0.435],[34.5921,0.445],[34.5956,0.444],[34.6041,0.45],[34.6136,0.4426],[34.6181,0.4565],[34.6283,0.4626],[34.6315,0.4595],[34.633,0.452],[34.6437,0.4503],[34.6492,0.4543],[34.6568,0.454],[34.6596,0.4596],[34.6677,0.4606],[34.6728,0.4698],[34.6776,0.4709],[34.6769,0.4795],[34.6788,0.4843],[34.6887,0.4851],[34.6912,0.4932],[34.6962,0.5016],[34.7014,0.5066],[34.71,0.5039],[34.7175,0.51],[34.7213,0.507],[34.7341,0.5181],[34.7381,0.5314],[34.7426,0.5359],[34.7487,0.5356],[34.7533,0.5398],[34.7594,0.55],[34.7646,0.5559],[34.764,0.5629],[34.7701,0.5635],[34.7729,0.5682],[34.7829,0.5765],[34.7878,0.5756],[34.7964,0.5837],[34.8041,0.5867],[34.8078,0.5904],[34.7996,0.5966],[34.8025,0.6042],[34.8085,0.606],[34.8122,0.6127],[34.819,0.6178],[34.8226,0.6178],[34.8314,0.6249],[34.8321,0.6322],[34.8346,0.6359],[34.8346,0.646],[34.8411,0.6594],[34.844,0.6681],[34.8512,0.67],[34.8572,0.6744],[34.857,0.6799],[34.8601,0.6832],[34.8646,0.6817],[34.8733,0.684],[34.8811,0.6824],[34.8918,0.6905],[34.8988,0.6854],[34.9094,0.6858],[34.9121,0.6909],[34.917,0.6929],[34.9185,0.6983],[34.9268,0.7027],[34.9288,0.7089],[34.9258,0.7162],[34.9218,0.7212],[34.9223,0.7288],[34.9277,0.7393],[34.9324,0.7385],[34.9417,0.7438],[34.9488,0.7518],[34.954,0.7516],[34.9572,0.7477],[34.9614,0.7519],[34.9699,0.7515],[34.9764,0.7554],[34.9807,0.7521],[34.9855,0.753],[34.9903,0.7474],[34.9995,0.7437],[35.0051,0.7462],[35.0102,0.7528],[35.016,0.7504],[35.0194,0.7428],[35.0274,0.744],[35.0267,0.7485],[35.0313,0.7516],[35.0393,0.7489],[35.0379,0.7565],[35.043,0.7604],[35.0554,0.7628],[35.0614,0.7619],[35.0653,0.7663],[35.0636,0.7758],[35.066,0.7819],[35.0623,0.7863],[35.0626,0.7944],[35.0588,0.7986],[35.0516,0.8004],[35.0406,0.8175],[35.0302,0.8204],[35.0234,0.8301],[35.0258,0.8388],[35.0237,0.8507],[35.012,0.8618],[35.0177,0.8798],[35.0177,0.8875]]]},"properties":{"name":"Bungoma","hasData":true,"dataId":1}},
{"type":"Feature","geometry":{"type":"Polygon","coordinates":[[[35.0177,0.8875],[35.0177,0.8798],[35.012,0.8618],[35.0237,0.8507],[35.0258,0.8388],[35.0234,0.8301],[35.0302,0.8204],[35.0406,0.8175],[35.0516,0.8004],[35.0588,0.7986],[35.0626,0.7944],[35.0623,0.7863],[35.066,0.7819],[35.0636,0.7758],[35.0653,0.7663],[35.0614,0.7619],[35.0554,0.7628],[35.043,0.7604],[35.0379,0.7565],[35.0393,0.7489],[35.0313,0.7516],[35.0267,0.7485],[35.0274,0.744],[35.0194,0.7428],[35.016,0.7504],[35.0102,0.7528],[35.0051,0.7462],[34.9995,0.7437],[34.9903,0.7474],[34.9855,0.753],[34.9807,0.7521],[34.9764,0.7554],[34.9699,0.7515],[34.9614,0.7519],[34.9572,0.7477],[34.954,0.7516],[34.9488,0.7518],[34.9417,0.7438],[34.9324,0.7385],[34.9277,0.7393],[34.9223,0.7288],[34.9218,0.7212],[34.9258,0.7162],[34.9288,0.7089],[34.9268,0.7027],[34.9185,0.6983],[34.917,0.6929],[34.9121,0.6909],[34.9094,0.6858],[34.8988,0.6854],[34.8918,0.6905],[34.8811,0.6824],[34.8733,0.684],[34.8646,0.6817],[34.8601,0.6832],[34.857,0.6799],[34.8572,0.6744],[34.8512,0.67],[34.844,0.6681],[34.8411,0.6594],[34.8346,0.646],[34.8346,0.6359],[34.8321,0.6322],[34.8314,0.6249],[34.8226,0.6178],[34.819,0.6178],[34.8122,0.6127],[34.8085,0.606],[34.8025,0.6042],[34.7996,0.5966],[34.8078,0.5904],[34.8041,0.5867],[34.7964,0.5837],[34.7878,0.5756],[34.7829,0.5765],[34.7729,0.5682],[34.7701,0.5635],[34.764,0.5629],[34.7646,0.5559],[34.7594,0.55],[34.7533,0.5398],[34.7487,0.5356],[34.7426,0.5359],[34.7381,0.5314],[34.7341,0.5181],[34.7213,0.507],[34.7175,0.51],[34.71,0.5039],[34.7014,0.5066],[34.6962,0.5016],[34.6912,0.4932],[34.6887,0.4851],[34.6788,0.4843],[34.6769,0.4795],[34.6776,0.4709],[34.6728,0.4698],[34.6677,0.4606],[34.6596,0.4596],[34.6568,0.454],[34.6492,0.4543],[34.6437,0.4503],[34.633,0.452],[34.6315,0.4595],[34.6283,0.4626],[34.6181,0.4565],[34.6136,0.4426],[34.6041,0.45],[34.5956,0.444],[34.5921,0.445],[34.5904,0.435],[34.5924,0.4278],[34.5871,0.4257],[34.5814,0.4301],[34.5803,0.44],[34.5813,0.4453],[34.58,0.4537],[34.5771,0.4561],[34.5627,0.4578],[34.5513,0.4699],[34.538,0.4611],[34.5375,0.4536],[34.5323,0.4428],[34.5231,0.4476],[34.5147,0.4496],[34.5078,0.4541],[34.5017,0.4557],[34.4951,0.4604],[34.4946,0.4675],[34.4916,0.4737],[34.4834,0.4842],[34.4702,0.4792],[34.4596,0.4689],[34.4458,0.4677],[34.4402,0.4635],[34.4341,0.4641],[34.4202,0.4748],[34.409,0.4762],[34.4045,0.4752],[34.3921,0.4679],[34.3899,0.4623],[34.3805,0.4585],[34.3762,0.4615],[34.3682,0.4583],[34.3623,0.4577],[34.3612,0.4371],[34.3563,0.4312],[34.35,0.4308],[34.3433,0.4255],[34.3493,0.4209],[34.3601,0.4071],[34.3657,0.4046],[34.3786,0.4053],[34.3842,0.3988],[34.3944,0.3953],[34.4091,0.3863],[34.4149,0.3793],[34.4234,0.3745],[34.419,0.3701],[34.4009,0.3606],[34.3974,0.3442],[34.3862,0.3376],[34.384,0.329],[34.383,0.3179],[34.3707,0.3066],[34.3973,0.2824],[34.3895,0.276],[34.3918,0.2702],[34.4014,0.2616],[34.3988,0.2544],[34.399,0.2382],[34.3981,0.2341],[34.3905,0.2334],[34.3838,0.2291],[34.3902,0.216],[34.3917,0.2062],[34.3892,0.2001],[34.3885,0.1925],[34.3856,0.187],[34.3877,0.18],[34.4004,0.1858],[34.4077,0.192],[34.411,0.1986],[34.4199,0.2037],[34.4267,0.2115],[34.4448,0.2186],[34.4514,0.2068],[34.447,0.2039],[34.4363,0.2022],[34.4267,0.1872],[34.4306,0.178],[34.4417,0.168],[34.4373,0.1596],[34.4316,0.1545],[34.4254,0.153],[34.4298,0.1479],[34.4381,0.1462],[34.4509,0.153],[34.4614,0.1548],[34.4669,0.1576],[34.4774,0.1554],[34.4815,0.1495],[34.484,0.1405],[34.4765,0.1365],[34.4696,0.1307],[34.4567,0.1307],[34.4582,0.124],[34.4739,0.1193],[34.4801,0.1153],[34.4739,0.1128],[34.4736,0.1026],[34.4792,0.1057],[34.4954,0.1044],[34.4951,0.1112],[34.5017,0.114],[34.5019,0.1176],[34.4956,0.1218],[34.5003,0.1276],[34.5071,0.1184],[34.5117,0.1216],[34.5138,0.1305],[34.5229,0.1245],[34.5283,0.1266],[34.5325,0.1338],[34.5416,0.1386],[34.5458,0.1376],[34.5495,0.1314],[34.5554,0.1268],[34.5524,0.1175],[34.5482,0.1172],[34.5457,0.1129],[34.5575,0.111],[34.5608,0.1069],[34.5593,0.1013],[34.5551,0.0993],[34.5603,0.0939],[34.5665,0.0975],[34.5741,0.0965],[34.5778,0.101],[34.5846,0.1043],[34.5863,0.1155],[34.5941,0.1169],[34.5995,0.1204],[34.6064,0.1195],[34.6133,0.1244],[34.6326,0.129],[34.6636,0.1266],[34.6757,0.1298],[34.6825,0.1215],[34.6872,0.1245],[34.6959,0.1342],[34.7036,0.1308],[34.706,0.1353],[34.7044,0.1396],[34.7168,0.1397],[34.7318,0.1472],[34.7383,0.1491],[34.7382,0.1417],[34.7426,0.1409],[34.7473,0.136],[34.7571,0.1419],[34.7663,0.1447],[34.7659,0.1494],[34.7707,0.1525],[34.776,0.1503],[34.7813,0.1572],[34.7869,0.1597],[34.7901,0.1574],[34.7967,0.1627],[34.8044,0.164],[34.8117,0.1618],[34.8161,0.1654],[34.8146,0.1711],[34.8139,0.1843],[34.8232,0.1873],[34.8332,0.1842],[34.8461,0.1832],[34.851,0.1849],[34.8517,0.1904],[34.8568,0.1925],[34.8587,0.1977],[34.8649,0.1969],[34.8748,0.1998],[34.8838,0.1976],[34.8866,0.2046],[34.8956,0.2065],[34.9023,0.1959],[34.9072,0.1949],[34.9194,0.2004],[34.9251,0.1992],[34.9279,0.2073],[34.9415,0.207],[34.9552,0.241],[34.9613,0.2399],[34.9772,0.2404],[34.9758,0.2473],[34.9497,0.3001],[34.9412,0.3244],[34.9353,0.3571],[34.9471,0.3542],[34.954,0.3668],[34.956,0.415],[34.9233,0.4749],[34.9065,0.4929],[34.9063,0.5026],[34.8859,0.5205],[34.8731,0.5249],[34.8702,0.5302],[34.8503,0.5457],[34.896,0.5992],[34.9038,0.5968],[34.9134,0.5917],[34.9209,0.5918],[34.9344,0.6022],[34.944,0.6069],[34.9502,0.6065],[34.9556,0.6088],[34.9645,0.6095],[34.9718,0.6202],[34.9802,0.6266],[34.9943,0.6298],[34.9978,0.6359],[35.027,0.6138],[35.0305,0.6161],[35.0343,0.6277],[35.0388,0.6308],[35.0372,0.6415],[35.0428,0.6421],[35.0535,0.637],[35.0527,0.63],[35.0622,0.6327],[35.0777,0.6291],[35.0855,0.6295],[35.0935,0.635],[35.1032,0.6469],[35.1121,0.6407],[35.1157,0.6466],[35.1218,0.6526],[35.1318,0.6542],[35.1412,0.6608],[35.1498,0.659],[35.1541,0.6623],[35.1493,0.6663],[35.1529,0.6738],[35.1517,0.6951],[35.1539,0.7397],[35.1469,0.7394],[35.1484,0.753],[35.1454,0.8265],[35.131,0.8293],[35.1241,0.8259],[35.124,0.8195],[35.1114,0.8546],[35.112,0.8798],[35.1019,0.8731],[35.0972,0.8774],[35.0857,0.8797],[35.0796,0.8867],[35.0803,0.893],[35.0728,0.8972],[35.0686,0.8958],[35.0591,0.8966],[35.0519,0.9005],[35.039,0.9006],[35.0375,0.8963],[35.0313,0.8943],[35.0247,0.8948],[35.0177,0.8875]]]},"properties":{"name":"Kakamega","hasData":true,"dataId":0}},
{"type":"Feature","geometry":{"type":"Polygon","coordinates":[[[34.3605,0.7784],[34.346,0.7749],[34.3335,0.7696],[34.3208,0.7679],[34.315,0.7656],[34.3099,0.75],[34.3094,0.7393],[34.307,0.7218],[34.3098,0.7072],[34.3129,0.6997],[34.3101,0.6959],[34.299,0.693],[34.292,0.6858],[34.287,0.683],[34.2785,0.6812],[34.2779,0.6769],[34.2801,0.6675],[34.2776,0.6579],[34.2785,0.6496],[34.2765,0.6433],[34.2669,0.6409],[34.2568,0.6365],[34.2531,0.6329],[34.2477,0.6329],[34.2414,0.6356],[34.2362,0.6296],[34.2278,0.6297],[34.2208,0.6326],[34.2151,0.6255],[34.2073,0.6282],[34.2006,0.6282],[34.1917,0.6216],[34.1911,0.616],[34.1857,0.6124],[34.1858,0.6069],[34.176,0.6077],[34.1713,0.6034],[34.1625,0.5993],[34.1519,0.588],[34.1438,0.5846],[34.1376,0.5858],[34.1282,0.562],[34.1269,0.5568],[34.1265,0.539],[34.1171,0.5233],[34.1224,0.52],[34.1231,0.516],[34.1173,0.5104],[34.1189,0.4953],[34.1181,0.4901],[34.1208,0.4804],[34.1113,0.4753],[34.1013,0.4656],[34.0912,0.4586],[34.0898,0.4542],[34.0916,0.4423],[34.0898,0.4264],[34.0997,0.4135],[34.1014,0.4042],[34.1056,0.3943],[34.109,0.3737],[34.1064,0.365],[34.1011,0.3564],[34.0999,0.3491],[34.0843,0.3362],[34.0813,0.3319],[34.0724,0.3258],[34.0589,0.3247],[34.0598,0.3119],[34.0544,0.3092],[34.0492,0.302],[34.05,0.295],[34.0427,0.2928],[34.0407,0.2891],[34.0402,0.2807],[34.0432,0.2787],[34.0368,0.2713],[34.0285,0.27],[34.0224,0.2614],[34.0217,0.2543],[34.0052,0.2409],[34.0054,0.2358],[33.9139,0.1114],[33.9118,0.1003],[33.9505,-0.026],[34.0111,-0.0259],[34.0194,-0.027],[34.0302,-0.0174],[34.0421,-0.0001],[34.0661,0.0875],[34.066,0.0905],[34.074,0.1063],[34.0718,0.1196],[34.0841,0.1226],[34.0869,0.1263],[34.0925,0.1255],[34.0975,0.1345],[34.1062,0.1281],[34.1109,0.1355],[34.1142,0.1452],[34.1116,0.1775],[34.1055,0.1862],[34.1108,0.2001],[34.1095,0.206],[34.1147,0.2145],[34.1158,0.2233],[34.1157,0.239],[34.1169,0.2432],[34.1318,0.2513],[34.1386,0.2583],[34.146,0.2688],[34.1485,0.2748],[34.1581,0.2907],[34.1588,0.3005],[34.1743,0.2956],[34.1792,0.289],[34.1843,0.2861],[34.1868,0.2782],[34.191,0.2736],[34.2025,0.2682],[34.2062,0.2688],[34.2077,0.2745],[34.2062,0.2833],[34.2076,0.2883],[34.2374,0.2897],[34.2447,0.3016],[34.2499,0.3134],[34.2636,0.3152],[34.2706,0.3127],[34.2852,0.3098],[34.287,0.3073],[34.2938,0.3098],[34.3014,0.3102],[34.3219,0.3095],[34.333,0.3114],[34.3461,0.3075],[34.3566,0.3058],[34.3623,0.2983],[34.3661,0.3001],[34.3707,0.3066],[34.383,0.3179],[34.384,0.329],[34.3862,0.3376],[34.3974,0.3442],[34.4009,0.3606],[34.419,0.3701],[34.4234,0.3745],[34.4149,0.3793],[34.4091,0.3863],[34.3944,0.3953],[34.3842,0.3988],[34.3786,0.4053],[34.3657,0.4046],[34.3601,0.4071],[34.3493,0.4209],[34.3433,0.4255],[34.35,0.4308],[34.3563,0.4312],[34.3612,0.4371],[34.3623,0.4577],[34.3682,0.4583],[34.3762,0.4615],[34.3805,0.4585],[34.3899,0.4623],[34.3921,0.4679],[34.3901,0.4689],[34.3852,0.4907],[34.3859,0.4954],[34.39,0.4992],[34.4007,0.4995],[34.4086,0.5046],[34.4074,0.5105],[34.4001,0.5199],[34.3932,0.5339],[34.389,0.5399],[34.3839,0.5418],[34.378,0.5508],[34.3683,0.5618],[34.3726,0.5686],[34.377,0.5788],[34.3701,0.5902],[34.3696,0.604],[34.3756,0.6067],[34.3789,0.613],[34.3793,0.6252],[34.3837,0.6334],[34.3831,0.6439],[34.392,0.6463],[34.3935,0.6493],[34.4171,0.6596],[34.4093,0.6813],[34.4157,0.69],[34.4041,0.7252],[34.4135,0.7301],[34.4225,0.7316],[34.4315,0.7264],[34.4337,0.7394],[34.433,0.7443],[34.4245,0.7597],[34.4241,0.7671],[34.4115,0.7673],[34.4102,0.7622],[34.406,0.7571],[34.3995,0.7566],[34.3937,0.7594],[34.3861,0.7678],[34.3823,0.7741],[34.3707,0.7724],[34.3605,0.7784]]]},"properties":{"name":"Busia","hasData":true,"dataId":2}},
{"type":"Feature","geometry":{"type":"Polygon","coordinates":[[[34.3707,0.3066],[34.3661,0.3001],[34.3623,0.2983],[34.3566,0.3058],[34.3461,0.3075],[34.333,0.3114],[34.3219,0.3095],[34.3014,0.3102],[34.2938,0.3098],[34.287,0.3073],[34.2852,0.3098],[34.2706,0.3127],[34.2636,0.3152],[34.2499,0.3134],[34.2447,0.3016],[34.2374,0.2897],[34.2076,0.2883],[34.2062,0.2833],[34.2077,0.2745],[34.2062,0.2688],[34.2025,0.2682],[34.191,0.2736],[34.1868,0.2782],[34.1843,0.2861],[34.1792,0.289],[34.1743,0.2956],[34.1588,0.3005],[34.1581,0.2907],[34.1485,0.2748],[34.146,0.2688],[34.1386,0.2583],[34.1318,0.2513],[34.1169,0.2432],[34.1157,0.239],[34.1158,0.2233],[34.1147,0.2145],[34.1095,0.206],[34.1108,0.2001],[34.1055,0.1862],[34.1116,0.1775],[34.1142,0.1452],[34.1109,0.1355],[34.1062,0.1281],[34.0975,0.1345],[34.0925,0.1255],[34.0869,0.1263],[34.0841,0.1226],[34.0718,0.1196],[34.074,0.1063],[34.066,0.0905],[34.0661,0.0875],[34.0421,-0.0001],[34.0302,-0.0174],[34.0194,-0.027],[34.0111,-0.0259],[33.9505,-0.026],[33.9822,-0.1294],[33.9477,-0.3372],[34.2398,-0.3375],[34.2793,-0.4087],[34.2893,-0.4207],[34.2993,-0.4252],[34.3076,-0.4254],[34.3166,-0.4229],[34.324,-0.4177],[34.4224,-0.3336],[34.4834,-0.2993],[34.426,-0.1305],[34.4243,-0.122],[34.4114,-0.083],[34.4116,-0.0784],[34.4375,-0.0613],[34.4377,-0.0591],[34.4463,-0.0558],[34.456,-0.0483],[34.4605,-0.0424],[34.4858,-0.0299],[34.5291,-0.0208],[34.5341,-0.0154],[34.5435,-0.0044],[34.5373,0.0054],[34.543,0.0081],[34.5512,0.0183],[34.5533,0.0406],[34.5567,0.0479],[34.5603,0.0716],[34.555,0.0887],[34.5603,0.0939],[34.5551,0.0993],[34.5593,0.1013],[34.5608,0.1069],[34.5575,0.111],[34.5457,0.1129],[34.5482,0.1172],[34.5524,0.1175],[34.5554,0.1268],[34.5495,0.1314],[34.5458,0.1376],[34.5416,0.1386],[34.5325,0.1338],[34.5283,0.1266],[34.5229,0.1245],[34.5138,0.1305],[34.5117,0.1216],[34.5071,0.1184],[34.5003,0.1276],[34.4956,0.1218],[34.5019,0.1176],[34.5017,0.114],[34.4951,0.1112],[34.4954,0.1044],[34.4792,0.1057],[34.4736,0.1026],[34.4739,0.1128],[34.4801,0.1153],[34.4739,0.1193],[34.4582,0.124],[34.4567,0.1307],[34.4696,0.1307],[34.4765,0.1365],[34.484,0.1405],[34.4815,0.1495],[34.4774,0.1554],[34.4669,0.1576],[34.4614,0.1548],[34.4509,0.153],[34.4381,0.1462],[34.4298,0.1479],[34.4254,0.153],[34.4316,0.1545],[34.4373,0.1596],[34.4417,0.168],[34.4306,0.178],[34.4267,0.1872],[34.4363,0.2022],[34.447,0.2039],[34.4514,0.2068],[34.4448,0.2186],[34.4267,0.2115],[34.4199,0.2037],[34.411,0.1986],[34.4077,0.192],[34.4004,0.1858],[34.3877,0.18],[34.3856,0.187],[34.3885,0.1925],[34.3892,0.2001],[34.3917,0.2062],[34.3902,0.216],[34.3838,0.2291],[34.3905,0.2334],[34.3981,0.2341],[34.399,0.2382],[34.3988,0.2544],[34.4014,0.2616],[34.3918,0.2702],[34.3895,0.276],[34.3973,0.2824],[34.3707,0.3066]]]},"properties":{"name":"Siaya","hasData":true,"dataId":4}},
{"type":"Feature","geometry":{"type":"Polygon","coordinates":[[[34.5603,0.0939],[34.555,0.0887],[34.5603,0.0716],[34.5567,0.0479],[34.5533,0.0406],[34.5512,0.0183],[34.543,0.0081],[34.5373,0.0054],[34.5435,-0.0044],[34.5341,-0.0154],[34.5426,-0.0169],[34.5452,-0.0213],[34.5504,-0.0216],[34.5548,-0.0155],[34.5628,-0.0158],[34.561,-0.0208],[34.5634,-0.0266],[34.56,-0.0293],[34.5642,-0.0398],[34.5706,-0.036],[34.5758,-0.0359],[34.5825,-0.0312],[34.5827,-0.0242],[34.5857,-0.021],[34.5878,-0.0106],[34.5921,-0.0073],[34.5889,0.0012],[34.6038,0.0124],[34.6139,-0.0007],[34.6375,-0.0007],[34.6485,-0.0057],[34.6542,-0.0066],[34.6603,-0.0135],[34.672,-0.0158],[34.6906,-0.0106],[34.6942,-0.0208],[34.7044,-0.0223],[34.7086,-0.0215],[34.7149,-0.0104],[34.7276,-0.0065],[34.7311,-0.0106],[34.7399,-0.0258],[34.7471,-0.0247],[34.7443,-0.0105],[34.7395,-0.0034],[34.7402,0.0051],[34.7437,0.008],[34.7546,0.0098],[34.7595,0.0079],[34.7605,-0.001],[34.7792,0.0072],[34.7806,0.0112],[34.7865,0.0131],[34.7898,0.0188],[34.7976,0.0229],[34.8066,0.031],[34.8104,0.0369],[34.8221,0.0363],[34.8259,0.0344],[34.8375,0.0363],[34.8389,0.0464],[34.8491,0.0604],[34.8466,0.0641],[34.8521,0.0732],[34.8543,0.0798],[34.8592,0.0833],[34.857,0.0933],[34.8582,0.1005],[34.8568,0.107],[34.8574,0.1172],[34.8593,0.1211],[34.8654,0.1243],[34.8738,0.1338],[34.8808,0.1361],[34.8837,0.1428],[34.9036,0.1528],[34.9108,0.1529],[34.9156,0.156],[34.9204,0.166],[34.9159,0.1718],[34.9251,0.1992],[34.9194,0.2004],[34.9072,0.1949],[34.9023,0.1959],[34.8956,0.2065],[34.8866,0.2046],[34.8838,0.1976],[34.8748,0.1998],[34.8649,0.1969],[34.8587,0.1977],[34.8568,0.1925],[34.8517,0.1904],[34.851,0.1849],[34.8461,0.1832],[34.8332,0.1842],[34.8232,0.1873],[34.8139,0.1843],[34.8146,0.1711],[34.8161,0.1654],[34.8117,0.1618],[34.8044,0.164],[34.7967,0.1627],[34.7901,0.1574],[34.7869,0.1597],[34.7813,0.1572],[34.776,0.1503],[34.7707,0.1525],[34.7659,0.1494],[34.7663,0.1447],[34.7571,0.1419],[34.7473,0.136],[34.7426,0.1409],[34.7382,0.1417],[34.7383,0.1491],[34.7318,0.1472],[34.7168,0.1397],[34.7044,0.1396],[34.706,0.1353],[34.7036,0.1308],[34.6959,0.1342],[34.6872,0.1245],[34.6825,0.1215],[34.6757,0.1298],[34.6636,0.1266],[34.6326,0.129],[34.6133,0.1244],[34.6064,0.1195],[34.5995,0.1204],[34.5941,0.1169],[34.5863,0.1155],[34.5846,0.1043],[34.5778,0.101],[34.5741,0.0965],[34.5665,0.0975],[34.5603,0.0939]]]},"properties":{"name":"Vihiga","hasData":true,"dataId":3}},
{"type":"Feature","geometry":{"type":"Polygon","coordinates":[[[34.7471,-0.0247],[34.7399,-0.0258],[34.7311,-0.0106],[34.7276,-0.0065],[34.7149,-0.0104],[34.7086,-0.0215],[34.7044,-0.0223],[34.6942,-0.0208],[34.6906,-0.0106],[34.672,-0.0158],[34.6603,-0.0135],[34.6542,-0.0066],[34.6485,-0.0057],[34.6375,-0.0007],[34.6139,-0.0007],[34.6038,0.0124],[34.5889,0.0012],[34.5921,-0.0073],[34.5878,-0.0106],[34.5857,-0.021],[34.5827,-0.0242],[34.5825,-0.0312],[34.5758,-0.0359],[34.5706,-0.036],[34.5642,-0.0398],[34.56,-0.0293],[34.5634,-0.0266],[34.561,-0.0208],[34.5628,-0.0158],[34.5548,-0.0155],[34.5504,-0.0216],[34.5452,-0.0213],[34.5426,-0.0169],[34.5341,-0.0154],[34.5291,-0.0208],[34.4858,-0.0299],[34.4605,-0.0424],[34.456,-0.0483],[34.4463,-0.0558],[34.4377,-0.0591],[34.4375,-0.0613],[34.4116,-0.0784],[34.4114,-0.083],[34.4243,-0.122],[34.426,-0.1305],[34.4834,-0.2993],[34.5324,-0.2717],[34.7064,-0.2581],[34.7546,-0.2895],[34.7554,-0.2962],[34.7582,-0.2992],[34.7571,-0.306],[34.7601,-0.3136],[34.7653,-0.3134],[34.7683,-0.3098],[34.7755,-0.3168],[34.779,-0.3164],[34.7869,-0.3243],[34.7883,-0.3296],[34.7829,-0.3321],[34.7858,-0.3417],[34.7985,-0.3542],[34.8039,-0.3535],[34.8108,-0.3562],[34.8209,-0.3702],[34.8219,-0.3784],[34.8244,-0.3811],[34.8247,-0.3879],[34.8337,-0.3881],[34.8387,-0.392],[34.8569,-0.3919],[34.8627,-0.3973],[34.8657,-0.3942],[34.8768,-0.3982],[34.8785,-0.3961],[34.886,-0.3972],[34.9083,-0.389],[34.9113,-0.3859],[34.9159,-0.3881],[34.9131,-0.3964],[34.9146,-0.4032],[34.9295,-0.4033],[34.9292,-0.4115],[34.9347,-0.4106],[34.9491,-0.4156],[34.9591,-0.416],[34.9751,-0.4095],[34.9824,-0.4135],[34.9883,-0.4088],[34.9975,-0.4043],[35.0036,-0.404],[35.0077,-0.3941],[35.0123,-0.3914],[35.0129,-0.3789],[35.0093,-0.3703],[35.0082,-0.3544],[35.0082,-0.3387],[35.012,-0.3321],[35.0231,-0.3235],[35.032,-0.3121],[35.0468,-0.3003],[35.0525,-0.2944],[35.0531,-0.2734],[35.0567,-0.2571],[35.0579,-0.2345],[35.0635,-0.2157],[35.0709,-0.2126],[35.0725,-0.2087],[35.1039,-0.2017],[35.1213,-0.172],[35.1283,-0.1561],[35.1317,-0.1554],[35.1364,-0.1603],[35.1544,-0.1662],[35.163,-0.1629],[35.174,-0.163],[35.1842,-0.1653],[35.1902,-0.163],[35.198,-0.1631],[35.2065,-0.1711],[35.2152,-0.1753],[35.2177,-0.1811],[35.2199,-0.1924],[35.2265,-0.1963],[35.2321,-0.1941],[35.2367,-0.2011],[35.2406,-0.2007],[35.2482,-0.2077],[35.2476,-0.2129],[35.2567,-0.222],[35.2606,-0.2233],[35.2593,-0.2297],[35.2703,-0.2377],[35.2845,-0.236],[35.3005,-0.2404],[35.3046,-0.2403],[35.312,-0.2485],[35.3195,-0.2477],[35.3305,-0.2429],[35.3397,-0.2402],[35.3422,-0.2365],[35.3355,-0.2078],[35.3304,-0.1922],[35.3303,-0.1763],[35.2957,-0.176],[35.2894,-0.1651],[35.2803,-0.166],[35.2846,-0.1571],[35.2774,-0.1448],[35.2703,-0.1526],[35.2533,-0.1205],[35.2365,-0.1196],[35.2265,-0.1066],[35.2265,-0.0677],[35.2212,-0.0391],[35.2105,-0.0333],[35.2064,-0.0294],[35.1937,-0.0264],[35.1872,-0.03],[35.1771,-0.0285],[35.1654,-0.0325],[35.1579,-0.0371],[35.1524,-0.0366],[35.1438,-0.0322],[35.1027,-0.0053],[35.1003,-0.0285],[35.0949,-0.0318],[35.0917,-0.0446],[35.0856,-0.0504],[35.0822,-0.0502],[35.0742,-0.0553],[35.0702,-0.0597],[35.07,-0.0645],[35.0656,-0.0688],[35.05,-0.0356],[35.0326,-0.0352],[35.0068,-0.0296],[34.9894,-0.0201],[34.9898,-0.0248],[34.9788,-0.0246],[34.9646,-0.0323],[34.9579,-0.0265],[34.9552,-0.031],[34.9342,-0.0359],[34.9237,-0.0367],[34.9198,-0.0334],[34.9212,-0.0268],[34.9061,-0.0293],[34.8916,-0.0256],[34.88,-0.0274],[34.8267,-0.0285],[34.809,-0.0228],[34.8034,-0.0177],[34.8037,-0.0129],[34.8125,-0.0018],[34.8307,0.0239],[34.8187,0.0219],[34.8098,0.0112],[34.8034,0.0101],[34.7877,-0.0066],[34.7794,-0.0195],[34.7747,-0.0172],[34.7627,-0.0179],[34.7572,-0.0263],[34.7551,-0.033],[34.7506,-0.0331],[34.7471,-0.0247]]]},"properties":{"name":"Kisumu","hasData":true,"dataId":7}},
{"type":"Feature","geometry":{"type":"Polygon","coordinates":[[[33.9477,-0.3372],[33.9281,-0.4548],[33.92,-0.5618],[33.9282,-0.8024],[34.081,-0.8024],[34.0969,-0.7823],[34.1096,-0.7812],[34.1128,-0.778],[34.123,-0.783],[34.1357,-0.7725],[34.139,-0.7784],[34.1559,-0.766],[34.1642,-0.7723],[34.172,-0.7715],[34.1767,-0.7683],[34.1786,-0.76],[34.1912,-0.7651],[34.202,-0.7504],[34.2096,-0.7596],[34.2124,-0.7676],[34.222,-0.7731],[34.2261,-0.7785],[34.2321,-0.7817],[34.2352,-0.7903],[34.2457,-0.8053],[34.2504,-0.8106],[34.2641,-0.8141],[34.2702,-0.8181],[34.2768,-0.8253],[34.284,-0.8263],[34.2952,-0.8371],[34.3193,-0.8651],[34.3353,-0.8613],[34.3367,-0.8549],[34.3522,-0.8523],[34.3691,-0.8511],[34.3715,-0.8452],[34.3786,-0.844],[34.3818,-0.8461],[34.3925,-0.8268],[34.3879,-0.8225],[34.3863,-0.8161],[34.3908,-0.8147],[34.4326,-0.8374],[34.4533,-0.8528],[34.4637,-0.8617],[34.4763,-0.8306],[34.4838,-0.8238],[34.4968,-0.8098],[34.4965,-0.8051],[34.4901,-0.7985],[34.4867,-0.7927],[34.4853,-0.7845],[34.4925,-0.7825],[34.5002,-0.7739],[34.5065,-0.77],[34.5067,-0.7622],[34.5165,-0.7596],[34.5249,-0.761],[34.5336,-0.7477],[34.5363,-0.7416],[34.5397,-0.7259],[34.5397,-0.7061],[34.5436,-0.6981],[34.5457,-0.6897],[34.5485,-0.6902],[34.5562,-0.6703],[34.5718,-0.663],[34.5853,-0.6597],[34.5876,-0.6534],[34.5976,-0.6534],[34.6046,-0.6517],[34.615,-0.6536],[34.6273,-0.6583],[34.6295,-0.6614],[34.6377,-0.6651],[34.6445,-0.6335],[34.6622,-0.6043],[34.6859,-0.6002],[34.7043,-0.5745],[34.7515,-0.5576],[34.7672,-0.544],[34.8021,-0.5268],[34.8491,-0.5109],[34.854,-0.5067],[34.8804,-0.489],[34.9032,-0.4838],[34.9388,-0.4655],[34.9688,-0.4417],[35.0009,-0.4278],[35.0142,-0.418],[35.0196,-0.4124],[35.0214,-0.4059],[35.0123,-0.3914],[35.0077,-0.3941],[35.0036,-0.404],[34.9975,-0.4043],[34.9883,-0.4088],[34.9824,-0.4135],[34.9751,-0.4095],[34.9591,-0.416],[34.9491,-0.4156],[34.9347,-0.4106],[34.9292,-0.4115],[34.9295,-0.4033],[34.9146,-0.4032],[34.9131,-0.3964],[34.9159,-0.3881],[34.9113,-0.3859],[34.9083,-0.389],[34.886,-0.3972],[34.8785,-0.3961],[34.8768,-0.3982],[34.8657,-0.3942],[34.8627,-0.3973],[34.8569,-0.3919],[34.8387,-0.392],[34.8337,-0.3881],[34.8247,-0.3879],[34.8244,-0.3811],[34.8219,-0.3784],[34.8209,-0.3702],[34.8108,-0.3562],[34.8039,-0.3535],[34.7985,-0.3542],[34.7858,-0.3417],[34.7829,-0.3321],[34.7883,-0.3296],[34.7869,-0.3243],[34.779,-0.3164],[34.7755,-0.3168],[34.7683,-0.3098],[34.7653,-0.3134],[34.7601,-0.3136],[34.7571,-0.306],[34.7582,-0.2992],[34.7554,-0.2962],[34.7546,-0.2895],[34.7064,-0.2581],[34.5324,-0.2717],[34.4834,-0.2993],[34.4224,-0.3336],[34.324,-0.4177],[34.3166,-0.4229],[34.3076,-0.4254],[34.2993,-0.4252],[34.2893,-0.4207],[34.2793,-0.4087],[34.2398,-0.3375],[33.9477,-0.3372]]]},"properties":{"name":"Homa Bay","hasData":true,"dataId":5}},
{"type":"Feature","geometry":{"type":"Polygon","coordinates":[[[33.9282,-0.8024],[33.9351,-1.0011],[34.0102,-1.0015],[34.0169,-1.0024],[34.0233,-1.0068],[34.0275,-1.0166],[34.0275,-1.0313],[34.0338,-1.0433],[34.0388,-1.0456],[34.045,-1.0452],[34.0577,-1.0372],[34.072,-1.0247],[34.0784,-1.0228],[34.0937,-1.0302],[34.3749,-1.1886],[34.7306,-1.389],[34.6886,-1.2106],[34.6808,-1.2105],[34.6725,-1.2073],[34.6714,-1.1968],[34.6602,-1.1867],[34.653,-1.1832],[34.6543,-1.1742],[34.6445,-1.1674],[34.6396,-1.1619],[34.6318,-1.1586],[34.6344,-1.151],[34.6319,-1.135],[34.6281,-1.1187],[34.6216,-1.1105],[34.6208,-1.1022],[34.6176,-1.0923],[34.614,-1.0857],[34.6166,-1.072],[34.5991,-1.0546],[34.5947,-1.0455],[34.5903,-1.0177],[34.642,-0.9683],[34.6327,-0.9655],[34.6185,-0.9008],[34.6286,-0.7531],[34.6313,-0.7298],[34.644,-0.7052],[34.6366,-0.6701],[34.6377,-0.6651],[34.6295,-0.6614],[34.6273,-0.6583],[34.615,-0.6536],[34.6046,-0.6517],[34.5976,-0.6534],[34.5876,-0.6534],[34.5853,-0.6597],[34.5718,-0.663],[34.5562,-0.6703],[34.5485,-0.6902],[34.5457,-0.6897],[34.5436,-0.6981],[34.5397,-0.7061],[34.5397,-0.7259],[34.5363,-0.7416],[34.5336,-0.7477],[34.5249,-0.761],[34.5165,-0.7596],[34.5067,-0.7622],[34.5065,-0.77],[34.5002,-0.7739],[34.4925,-0.7825],[34.4853,-0.7845],[34.4867,-0.7927],[34.4901,-0.7985],[34.4965,-0.8051],[34.4968,-0.8098],[34.4838,-0.8238],[34.4763,-0.8306],[34.4637,-0.8617],[34.4533,-0.8528],[34.4326,-0.8374],[34.3908,-0.8147],[34.3863,-0.8161],[34.3879,-0.8225],[34.3925,-0.8268],[34.3818,-0.8461],[34.3786,-0.844],[34.3715,-0.8452],[34.3691,-0.8511],[34.3522,-0.8523],[34.3367,-0.8549],[34.3353,-0.8613],[34.3193,-0.8651],[34.2952,-0.8371],[34.284,-0.8263],[34.2768,-0.8253],[34.2702,-0.8181],[34.2641,-0.8141],[34.2504,-0.8106],[34.2457,-0.8053],[34.2352,-0.7903],[34.2321,-0.7817],[34.2261,-0.7785],[34.222,-0.7731],[34.2124,-0.7676],[34.2096,-0.7596],[34.202,-0.7504],[34.1912,-0.7651],[34.1786,-0.76],[34.1767,-0.7683],[34.172,-0.7715],[34.1642,-0.7723],[34.1559,-0.766],[34.139,-0.7784],[34.1357,-0.7725],[34.123,-0.783],[34.1128,-0.778],[34.1096,-0.7812],[34.0969,-0.7823],[34.081,-0.8024],[33.9282,-0.8024]]]},"properties":{"name":"Migori","hasData":true,"dataId":6}}
]}