{"type":"FeatureCollection","name":"uganda-boundaries (rebuilt from geoBoundaries simplified)","features":[{"type":"Feature","properties":{"country":"Uganda","admin_level":"Admin1","admin1":"Iganga","admin2":"","name":"Iganga","verified":true,"source":"geoBoundaries UGA ADM3 (district)","sourceName":"Iganga"},"geometry":{"type":"Polygon","coordinates":[[[33.53742680290469,0.547647381521472],[33.536786304844156,0.571370711988834],[33.54511472576405,0.580708167747787],[33.56495289146284,0.677752861305578],[33.56371991464238,0.727470585599121],[33.54713373703237,0.750798319586806],[33.54634506037627,0.771696395672166],[33.55800479138804,0.792464099738481],[33.53787657004773,0.814522460443243],[33.53723048629797,0.861197008435227],[33.52811373046433,0.86800169722062],[33.50751064100331,0.866879878403722],[33.50069647875955,0.859057097706966],[33.47697309613153,0.859309445674398],[33.46107338273049,0.869151005614469],[33.421955039293664,0.868393963510641],[33.403531562032015,0.894638002841589],[33.39297102829039,0.894135181993079],[33.3548733910942,0.851668339722153],[33.35632707953113,0.825343252589107],[33.365856812142226,0.814683965192899],[33.36569529120476,0.792396271970404],[33.38132243897945,0.774519599599898],[33.382836696756215,0.746760641490482],[33.426466268003935,0.697961234723266],[33.42686060633196,0.673908332403641],[33.422128549093316,0.665233485437057],[33.410598101920925,0.650864751806921],[33.4050458207081,0.635470761366605],[33.4063077026384,0.629161735725575],[33.41160760710545,0.624619231292513],[33.41286948903576,0.60266374403659],[33.422459792785276,0.590802696187552],[33.42200192904585,0.556239868575119],[33.42621936902873,0.549970993166824],[33.46990655714194,0.550424474509953],[33.487825281811354,0.529478162387306],[33.499686972675704,0.529225797332742],[33.51028678160975,0.547396096552689],[33.53742680290469,0.547647381521472]]]}},{"type":"Feature","properties":{"country":"Uganda","admin_level":"Admin1","admin1":"Kamuli","admin2":"","name":"Kamuli","verified":true,"source":"geoBoundaries UGA ADM3 (district)","sourceName":"Kamuli"},"geometry":{"type":"Polygon","coordinates":[[[32.93217359063874,1.218430615580473],[32.94773977337189,1.190373861364662],[32.9490016553022,1.117704204585436],[32.9278503436185,1.073276334835043],[32.92600188427957,1.036313400143342],[32.92023074495296,1.030649654258184],[32.91997836820718,0.972359612905848],[32.967851018209956,0.900631206365119],[32.99821505508078,0.871059382284727],[33.0443526160804,0.748826797019092],[33.04626121218524,0.729395431553996],[33.048067274784955,0.652031592484036],[33.06004727326308,0.643546302819686],[33.07165658828097,0.643546302819686],[33.09108957162647,0.6685299288132],[33.11001780237973,0.669034647231229],[33.11657958877703,0.659444988295604],[33.13601257212258,0.659697347954307],[33.14408861719596,0.682157308113347],[33.1869926064237,0.68341910011145],[33.20163043699512,0.671810597181377],[33.22080610002155,0.672692508352611],[33.21980153930963,0.698055868583538],[33.21576351587362,0.705121878771763],[33.21525876328133,0.710421377644536],[33.235196499219114,0.755088347449316],[33.27204345464179,0.787894305377961],[33.277020318133225,0.794980358756618],[33.27685879629644,0.821628655038467],[33.286550050744324,0.827119797640592],[33.28769079129705,0.847701418485713],[33.27810048934617,0.854514829795619],[33.277090983262326,0.865870488332405],[33.2869336628583,0.872179173130405],[33.286681286112525,0.888581702883357],[33.29349544925566,0.897918494942644],[33.2998048598065,0.923405291620952],[33.298230264715016,0.981853894241851],[33.28213851098354,0.981853894241851],[33.27425174891914,0.985008135017438],[33.26044991283328,0.985402414889563],[33.2210160998132,0.999596457910229],[33.18315964010537,1.047698031239179],[33.15989368954217,1.047698031239179],[33.13172217284006,1.164636903870075],[33.11001780237973,1.164636903870075],[33.08780867932717,1.193149401223934],[33.06249217107688,1.193969446232984],[33.04040923459854,1.223932472705485],[32.991905644529936,1.223932472705485],[32.987173587291295,1.218807242660148],[32.93217359063874,1.218430615580473]]]}},{"type":"Feature","properties":{"country":"Uganda","admin_level":"Admin1","admin1":"Namutumba","admin2":"","name":"Namutumba","verified":true,"source":"geoBoundaries UGA ADM3 (district)","sourceName":"Namutumba"},"geometry":{"type":"Polygon","coordinates":[[[33.838313523950035,0.686531059261029],[33.81414797434957,0.730357538869384],[33.79521974359636,0.73893763056725],[33.79446261425829,0.75685482908716],[33.78588181749194,0.786632543057465],[33.770723459320266,0.817435218860282],[33.770723459320266,0.912065581661295],[33.745091480587405,0.924288494218672],[33.74567817670652,0.928688143143347],[33.69325967589339,0.976649390756847],[33.69199779396308,1.038219712869477],[33.63633294740765,1.079709700742171],[33.63614207169928,1.079999405648095],[33.612337705121035,1.054671909481101],[33.60076372266769,1.027195808839565],[33.56656672037792,0.979677467441206],[33.55546215795226,0.957723857969711],[33.54839561986199,0.914068565212176],[33.52811373046433,0.86800169722062],[33.53723048629797,0.861197008435227],[33.53787657004773,0.814522460443243],[33.55800479138804,0.792464099738481],[33.58019504666413,0.791911756822174],[33.587625007987754,0.784805509166972],[33.60265654556321,0.784613721546066],[33.63748448971745,0.75786424613807],[33.63748448971745,0.742722960696142],[33.630670327473695,0.733385808008677],[33.63229431962719,0.727754204792745],[33.66903154157245,0.707897807138124],[33.694016805231456,0.701841231987316],[33.732509254698414,0.701144725049062],[33.74430028043366,0.721333282804778],[33.75221480456963,0.721656298599328],[33.77402012662759,0.682086647480844],[33.81650012238282,0.682732685365181],[33.82586833495577,0.686124383133802],[33.838313523950035,0.686531059261029]]]}},{"type":"Feature","properties":{"country":"Uganda","admin_level":"Admin2","admin1":"","admin2":"Bugulumbya","name":"Bugulumbya","verified":true,"source":"geoBoundaries UGA ADM4 (subcounty)","sourceName":"Bugulumbya"},"geometry":{"type":"Polygon","coordinates":[[[33.12312265700007,0.792317048000029],[33.12912956100007,0.787823963000051],[33.131767713000045,0.788086252000028],[33.136597074000065,0.785788077000063],[33.13871143600005,0.786629407000021],[33.14452526600007,0.77773570200003],[33.14661767900003,0.777482304000046],[33.14731213600004,0.774161917000072],[33.14945228500005,0.773691382000038],[33.15163551300003,0.768335298000068],[33.15506084100008,0.766797131000033],[33.15980566300004,0.758002975000068],[33.16304988200005,0.766855462000024],[33.163363580000066,0.778168203000064],[33.16490878900004,0.781731881000042],[33.16972466900006,0.784546083000066],[33.17392492700003,0.780654233000064],[33.17955661600007,0.778809151000075],[33.18417173700004,0.779239862000054],[33.19101922800007,0.774268723000034],[33.19629742800004,0.773825163000026],[33.20498529500003,0.768724846000055],[33.20811022000004,0.765325460000042],[33.20733859000006,0.763823204000062],[33.21045447200004,0.761823525000068],[33.22524142200007,0.75554829400005],[33.23652370700006,0.748563134000051],[33.24073078200007,0.75541167800003],[33.24515278900003,0.758333692000065],[33.25047544500006,0.764883596000061],[33.25267565400003,0.783077486000025],[33.25006360500004,0.782290533000037],[33.24324098200003,0.802203950000035],[33.24260897900007,0.81993661000007],[33.24044197500007,0.822216651000076],[33.22193683100005,0.829337934000023],[33.217252022000025,0.829482953000024],[33.21096189700006,0.84617681900005],[33.21015070900006,0.853000611000027],[33.20487510400005,0.849748615000067],[33.188976377000074,0.84410906100004],[33.18566228100008,0.839988479000056],[33.183943577000036,0.832470264000051],[33.177270167000074,0.828775336000035],[33.16139876600005,0.813936560000059],[33.15520593800005,0.810992890000023],[33.15226376800007,0.80694268600007],[33.149599238000064,0.806651248000037],[33.148643658000026,0.804506541000023],[33.13984684800005,0.797784518000071],[33.132243333000076,0.795483122000064],[33.12905365700004,0.793096970000022],[33.12312265700007,0.792317048000029]]]}},{"type":"Feature","properties":{"country":"Uganda","admin_level":"Admin2","admin1":"","admin2":"Bulopa","name":"Bulopa","verified":true,"source":"geoBoundaries UGA ADM4 (subcounty)","sourceName":"Bulopa"},"geometry":{"type":"Polygon","coordinates":[[[33.25267565400003,0.783077486000025],[33.25535837100006,0.791256034000071],[33.262746037000056,0.789708490000066],[33.27115071600008,0.792874477000055],[33.27550102400005,0.797958732000041],[33.27872566700006,0.805168658000071],[33.28157570400003,0.820087222000041],[33.28156327000005,0.832274453000025],[33.28623470100007,0.839167434000046],[33.29545920000004,0.846540885000024],[33.304942502000074,0.849335731000053],[33.29873039600005,0.857125871000051],[33.283250011000064,0.863414119000026],[33.27300339400006,0.868074961000048],[33.27110305700006,0.868102241000031],[33.26525766000003,0.863805386000024],[33.26498692300004,0.847006148000048],[33.25745317900004,0.850213017000044],[33.251769625000065,0.854840535000051],[33.24637691300006,0.853818339000043],[33.222651969000026,0.859863375000032],[33.21900829800006,0.859872814000028],[33.21766404500005,0.857492259000026],[33.21015070900006,0.853000611000027],[33.21096189700006,0.84617681900005],[33.217252022000025,0.829482953000024],[33.22193683100005,0.829337934000023],[33.24044197500007,0.822216651000076],[33.24260897900007,0.81993661000007],[33.24324098200003,0.802203950000035],[33.25006360500004,0.782290533000037],[33.25267565400003,0.783077486000025]]]}},{"type":"Feature","properties":{"country":"Uganda","admin_level":"Admin2","admin1":"","admin2":"Kisozi","name":"Kisozi","verified":true,"source":"geoBoundaries UGA ADM4 (subcounty)","sourceName":"Kisozi"},"geometry":{"type":"Polygon","coordinates":[[[33.037252559000024,0.802067744000055],[33.038716055000066,0.787348945000076],[33.04433396300004,0.780406929000037],[33.04102345800004,0.776340370000071],[33.04095887700004,0.772915770000054],[33.04845949600008,0.764818328000047],[33.04661137900007,0.760737997000035],[33.04897075500003,0.757217142000059],[33.05028250400005,0.746702285000026],[33.05328059300007,0.738844836000055],[33.05224020600008,0.736062080000067],[33.04727617800006,0.731274577000022],[33.04965407700007,0.726606681000021],[33.052508405000026,0.726044916000035],[33.056546395000055,0.727967938000063],[33.07605826200006,0.727050314000053],[33.08290906600007,0.723889309000072],[33.08604894900003,0.718975516000057],[33.094412662000025,0.717538585000057],[33.097709327000075,0.714426224000022],[33.104931527000076,0.716001015000074],[33.10715825700004,0.724822692000032],[33.112795885000025,0.722696144000054],[33.11570480300003,0.727779063000071],[33.115631603000054,0.727910071000053],[33.115515326000036,0.73733113000003],[33.111132533000045,0.743477600000062],[33.10826610100003,0.753600964000043],[33.10651854400004,0.755676591000054],[33.10580586200007,0.762119405000021],[33.11233101100004,0.774852679000048],[33.11283657900003,0.793941019000044],[33.102078049000056,0.798279586000035],[33.09892526700003,0.801444950000075],[33.09837591500008,0.804533670000069],[33.095104752000054,0.806227007000075],[33.09342553700003,0.811046077000071],[33.08293345200008,0.816198618000044],[33.07484043200003,0.816306921000034],[33.07226218900007,0.819929740000021],[33.067490521000025,0.819803658000069],[33.06302332700005,0.825445162000051],[33.05644618100007,0.828519476000054],[33.05442063400005,0.828411241000026],[33.05349744200004,0.825100164000048],[33.051104413000076,0.823638625000058],[33.05879064700002,0.812879652000049],[33.06002593200003,0.802771742000061],[33.037252559000024,0.802067744000055]]]}},{"type":"Feature","properties":{"country":"Uganda","admin_level":"Admin2","admin1":"","admin2":"Kitayunjwa","name":"Kitayunjwa","verified":true,"source":"geoBoundaries UGA ADM4 (subcounty)","sourceName":"Kitayunjwa"},"geometry":{"type":"Polygon","coordinates":[[[33.12935729800006,0.876649064000048],[33.12718838100005,0.871919513000023],[33.12887491300006,0.861854372000039],[33.123794288000056,0.851957233000064],[33.12179084400003,0.850992553000026],[33.11801692200004,0.844804307000061],[33.118355532000066,0.84097728100005],[33.12031478400007,0.838588729000037],[33.12272003900006,0.835847317000059],[33.12494281100004,0.835765820000063],[33.12716203800005,0.838986592000026],[33.137114162000046,0.836299201000031],[33.14077466600003,0.827740316000074],[33.14847695000003,0.823207331000049],[33.15329699900008,0.816584925000029],[33.15520593800005,0.810992890000023],[33.16139876600005,0.813936560000059],[33.177270167000074,0.828775336000035],[33.183943577000036,0.832470264000051],[33.18566228100008,0.839988479000056],[33.188976377000074,0.84410906100004],[33.20487510400005,0.849748615000067],[33.21015070900006,0.853000611000027],[33.21766404500005,0.857492259000026],[33.21900829800006,0.859872814000028],[33.222651969000026,0.859863375000032],[33.22149813400006,0.868910710000023],[33.22633432300006,0.882248336000032],[33.22590814200004,0.884815538000055],[33.22281507500003,0.885504525000044],[33.21466450300005,0.883821589000036],[33.20824799900004,0.887174112000025],[33.209069756000076,0.891121773000066],[33.21329230900005,0.894789433000028],[33.21410627600005,0.90792297400003],[33.19801410500003,0.919112015000053],[33.20058069400005,0.923240799000041],[33.21023491200003,0.929681893000065],[33.21356263000007,0.938068510000051],[33.21304713100005,0.941099378000047],[33.200006150000036,0.950038867000046],[33.190324915000076,0.953812135000021],[33.191151072000025,0.955730112000026],[33.18318435800006,0.955938638000021],[33.17363170200008,0.959331873000053],[33.16626817100007,0.968605718000049],[33.16106237900004,0.970838255000047],[33.15761405400008,0.962928935000036],[33.159039386000075,0.95600726300006],[33.15765057400006,0.948505834000059],[33.157841965000046,0.926907129000028],[33.15834653700006,0.923396755000056],[33.162863714000025,0.915172556000073],[33.15851711000005,0.91256713100006],[33.15822574400005,0.911089532000062],[33.161465183000075,0.906873736000023],[33.16168617100004,0.901601412000048],[33.163224515000024,0.898903722000057],[33.16929765400005,0.900079482000024],[33.16976462800005,0.89717952500007],[33.16474240100007,0.893448636000073],[33.15922602000006,0.893503161000069],[33.15760834200006,0.888021713000057],[33.14922421700004,0.890949800000044],[33.143589845000065,0.897095261000061],[33.14060105200008,0.898012238000035],[33.13528811400005,0.892319041000064],[33.134285377000026,0.887451769000052],[33.13572772800006,0.883931934000032],[33.12935729800006,0.876649064000048]]]}},{"type":"Feature","properties":{"country":"Uganda","admin_level":"Admin2","admin1":"","admin2":"Magada","name":"Magada","verified":true,"source":"geoBoundaries UGA ADM4 (subcounty)","sourceName":"Magada"},"geometry":{"type":"Polygon","coordinates":[[[33.79053799400003,0.920443847000058],[33.76597768400006,0.937583367000059],[33.75185797700004,0.916136722000033],[33.75054058500007,0.905727326000033],[33.72908436900008,0.906199018000052],[33.714564772000074,0.911437532000036],[33.70850593600005,0.912121914000068],[33.70592671500003,0.910512934000053],[33.69617877200005,0.912241162000043],[33.690659399000026,0.909646272000032],[33.68797669700007,0.906323955000062],[33.68072856500004,0.911689470000056],[33.675774071000035,0.913187212000025],[33.655023484000026,0.912336463000031],[33.62376725300004,0.906355201000054],[33.619748908000076,0.906621063000046],[33.63211197900006,0.89487293000002],[33.64212250000003,0.889683479000041],[33.64595170500007,0.884599087000026],[33.64860499300005,0.875019602000066],[33.65191861100004,0.872548600000073],[33.65603951400004,0.856695883000043],[33.65886584100008,0.853619967000043],[33.67202688800006,0.856750685000065],[33.68217688900006,0.848669352000059],[33.68203141200007,0.858203608000053],[33.68011670200008,0.862784686000055],[33.684271626000054,0.861389478000035],[33.69183691600006,0.861676356000032],[33.69294118600004,0.857776466000075],[33.70311682500005,0.862936682000054],[33.706492903000026,0.860422774000028],[33.71166252100005,0.861096618000033],[33.71716499200005,0.876632828000027],[33.72257396200007,0.869924038000022],[33.731895028000054,0.868728074000046],[33.738175237000064,0.862575166000056],[33.74201945800007,0.860680494000064],[33.75122292100008,0.863549615000068],[33.76778398300007,0.859203945000047],[33.78104134400007,0.866945026000053],[33.790053913000065,0.868535317000067],[33.79195708900005,0.908855009000035],[33.791999168000075,0.916318333000049],[33.79053799400003,0.920443847000058]]]}},{"type":"Feature","properties":{"country":"Uganda","admin_level":"Admin2","admin1":"","admin2":"Namasagali","name":"Namasagali","verified":true,"source":"geoBoundaries UGA ADM4 (subcounty)","sourceName":"Namasagali"},"geometry":{"type":"Polygon","coordinates":[[[33.05305459700003,0.984082425000054],[33.05514150800008,0.987261631000024],[33.05457107800004,0.997887383000034],[33.058620605000044,1.005993610000075],[33.061350825000034,1.021427581000069],[33.052091046000044,1.04060804900007],[33.04648044900006,1.043512329000066],[33.04007321600005,1.043476229000021],[33.02982647600004,1.061154819000024],[33.028642036000065,1.066800361000048],[33.02490265700004,1.072970670000075],[33.015182620000076,1.078625313000032],[33.01477369712984,1.078618560443471],[33.01353943300006,1.078598179000039],[33.007842208000056,1.07828154200007],[33.00178882300003,1.083158061000063],[32.973114370000076,1.093951399000048],[32.96721708100006,1.098013588000072],[32.95612275900004,1.111295068000061],[32.94158747800003,1.09667052900005],[32.937853424000025,1.088285670000062],[32.937279069000056,1.081520005000073],[32.94371385000005,1.05671273400003],[32.934548438000036,1.029489812000065],[32.93498232400003,1.02224820400005],[32.93693567400004,1.016696936000073],[32.94382955700007,1.010740975000033],[32.94520838200003,1.006519691000051],[32.94561102800003,0.975293587000067],[32.950264434000076,0.964248868000027],[32.948139092000076,0.950544040000068],[32.94928809700008,0.946091443000057],[32.95451586000007,0.939325856000039],[32.96405206700007,0.936723792000066],[32.96784372800005,0.917930325000043],[32.976116078000075,0.910297336000042],[32.979233401000045,0.905065278000052],[32.98422130200004,0.906906995000043],[32.99069259500004,0.907033672000068],[32.99720545100007,0.910272635000069],[33.00287178000008,0.917772872000057],[33.014134211000055,0.914054392000025],[33.02185783600004,0.913269230000026],[33.01884330100006,0.91450837900004],[33.01673173300003,0.917637127000035],[33.00924340700004,0.934028137000041],[33.00952628700003,0.938778024000044],[33.01503819900006,0.95330227300002],[33.016650011000024,0.955590104000066],[33.028259680000076,0.954971666000063],[33.04105595500005,0.974914710000064],[33.05305459700003,0.984082425000054]]]}},{"type":"Feature","properties":{"country":"Uganda","admin_level":"Admin2","admin1":"","admin2":"Nambale","name":"Nambale","verified":true,"source":"geoBoundaries UGA ADM4 (subcounty)","sourceName":"Nambale"},"geometry":{"type":"Polygon","coordinates":[[[33.476827462000074,0.740461649000054],[33.47890239800006,0.738819105000061],[33.49343199800006,0.739584999000044],[33.49619307100005,0.737411139000073],[33.49794646500004,0.737786211000071],[33.49992129300006,0.734791691000055],[33.50206846700007,0.736179912000068],[33.51055487000008,0.731839784000044],[33.51895695800005,0.732027840000057],[33.53178333100004,0.737781416000075],[33.53772618900007,0.747230171000069],[33.557414798000025,0.761048349000021],[33.55554818000007,0.764465638000047],[33.557219478000036,0.775005068000041],[33.562971412000024,0.792835738000065],[33.56413302500005,0.801185863000057],[33.560862050000026,0.808025774000043],[33.54883837500006,0.821507344000054],[33.54693409300006,0.824891157000025],[33.54351657500007,0.840551861000051],[33.54584202500007,0.864236378000044],[33.54157581000004,0.887425625000049],[33.53138854400004,0.886601119000034],[33.52091708800003,0.879587729000036],[33.51311179700008,0.877676896000025],[33.50808844900007,0.873436152000068],[33.50152891600004,0.868490930000064],[33.48436093400005,0.848747268000068],[33.48200598500006,0.842287997000028],[33.481969132000074,0.83492373100006],[33.48473352900004,0.832019298000034],[33.48726568100005,0.831620914000041],[33.493936303000055,0.833918015000052],[33.50014469700005,0.83349484200005],[33.49764380000005,0.817479155000058],[33.49056787500007,0.807682129000057],[33.48370154100007,0.80294232500006],[33.48179284400004,0.798057164000056],[33.47747826800003,0.797261535000075],[33.47001535700008,0.791915606000032],[33.468187310000076,0.78470532800003],[33.46804109800007,0.773034669000026],[33.47164868200008,0.760495081000045],[33.47454690500007,0.742638090000071],[33.476827462000074,0.740461649000054]]]}},{"type":"Feature","properties":{"country":"Uganda","admin_level":"Admin2","admin1":"","admin2":"Namungalwe","name":"Namungalwe","verified":true,"source":"geoBoundaries UGA ADM4 (subcounty)","sourceName":"Namungalwe"},"geometry":{"type":"Polygon","coordinates":[[[33.42223685600004,0.72885351900004],[33.42821012300004,0.726206860000048],[33.43206612000006,0.721388747000049],[33.43822024700006,0.718875554000022],[33.44549636200003,0.719956072000059],[33.45590563700006,0.718536584000049],[33.46055991500003,0.714406367000038],[33.46366597700006,0.714129865000075],[33.47381244600007,0.708085403000041],[33.47375143200003,0.699083614000074],[33.47801331200003,0.69215764300003],[33.473359870000024,0.687121430000047],[33.47196086500003,0.680437159000064],[33.476379044000055,0.678784989000064],[33.47722107800007,0.666556656000068],[33.480740758000024,0.660913511000047],[33.48368467700004,0.65955582700002],[33.49223176600003,0.663234208000063],[33.50245825700006,0.661824552000041],[33.506480716000056,0.662960582000039],[33.514687716000026,0.667252002000055],[33.51951194500003,0.674522844000023],[33.52471883100003,0.669411773000036],[33.52889460400007,0.672398629000043],[33.530492320000064,0.670751604000031],[33.53690301100005,0.671631770000033],[33.53853527500007,0.667034889000035],[33.54499133000007,0.672638742000061],[33.54602960100004,0.679797577000045],[33.54872838800003,0.683532748000061],[33.55006942000006,0.690878694000048],[33.554901493000045,0.701270959000055],[33.55566209600005,0.709415161000038],[33.553843167000025,0.712645131000045],[33.55447060400007,0.722171456000069],[33.55787586300005,0.731016520000026],[33.556078968000065,0.737786227000072],[33.556313698000054,0.744243028000028],[33.559295070000076,0.750455118000048],[33.55983981000003,0.757824646000074],[33.557414798000025,0.761048349000021],[33.53772618900007,0.747230171000069],[33.53178333100004,0.737781416000075],[33.51895695800005,0.732027840000057],[33.51055487000008,0.731839784000044],[33.50206846700007,0.736179912000068],[33.49992129300006,0.734791691000055],[33.49794646500004,0.737786211000071],[33.49619307100005,0.737411139000073],[33.49343199800006,0.739584999000044],[33.47890239800006,0.738819105000061],[33.476827462000074,0.740461649000054],[33.470101801000055,0.73987190500003],[33.46111203300006,0.74266450600004],[33.45324874600004,0.748093561000076],[33.44886639400005,0.748736357000041],[33.44237931400005,0.743625430000066],[33.44060645400003,0.736731741000028],[33.426627120000035,0.734634191000055],[33.42223685600004,0.72885351900004]]]}},{"type":"Feature","properties":{"country":"Uganda","admin_level":"Admin2","admin1":"","admin2":"Namutumba","name":"Namutumba","verified":true,"source":"geoBoundaries UGA ADM4 (subcounty)","sourceName":"Namutumba"},"geometry":{"type":"Polygon","coordinates":[[[33.788768385000026,0.850252666000074],[33.790053913000065,0.868535317000067],[33.78104134400007,0.866945026000053],[33.76778398300007,0.859203945000047],[33.75122292100008,0.863549615000068],[33.74201945800007,0.860680494000064],[33.738175237000064,0.862575166000056],[33.731895028000054,0.868728074000046],[33.72257396200007,0.869924038000022],[33.71716499200005,0.876632828000027],[33.71166252100005,0.861096618000033],[33.70825695900004,0.851848948000054],[33.70132773500006,0.84534118800002],[33.699809327000025,0.840692150000052],[33.70178789100004,0.835776813000052],[33.71276642300006,0.828239040000028],[33.707700396000064,0.817854410000052],[33.701709804000075,0.813567363000061],[33.69838405300004,0.808830833000059],[33.697983330000056,0.805614841000022],[33.69105846100007,0.797500776000049],[33.67442478700008,0.803361180000024],[33.667136095000046,0.799876550000022],[33.67125867200008,0.791543847000071],[33.67191343400003,0.776453824000043],[33.66975417000003,0.772003185000074],[33.660772708000025,0.77504430700003],[33.65423524700003,0.77522626700005],[33.65026197700007,0.77182233800005],[33.644538080000075,0.770405845000028],[33.64291984300007,0.767916711000055],[33.643607744000064,0.757930498000064],[33.63950225000008,0.749436193000065],[33.63866451600006,0.74377303600005],[33.64013755900004,0.73167360900004],[33.64715418800006,0.733553297000071],[33.647904605000065,0.731703849000041],[33.67508047700005,0.727094475000058],[33.68802762800004,0.740979161000041],[33.69425734500004,0.750626466000028],[33.69989306400004,0.755110472000069],[33.70095861300007,0.765502603000073],[33.69940374000004,0.769642607000037],[33.712016368000036,0.774580876000073],[33.71751393200003,0.775269294000054],[33.72603700600007,0.781625192000035],[33.73434043800006,0.782810950000055],[33.74612666000007,0.793694830000049],[33.75991318800004,0.798159507000037],[33.786936179000065,0.82500432300003],[33.788768385000026,0.850252666000074]]]}},{"type":"Feature","properties":{"country":"Uganda","admin_level":"Admin2","admin1":"","admin2":"Namwendwa","name":"Namwendwa","verified":true,"source":"geoBoundaries UGA ADM4 (subcounty)","sourceName":"Namwendwa"},"geometry":{"type":"Polygon","coordinates":[[[33.20207751800007,1.00953362000007],[33.196415683000055,0.997446809000053],[33.19541039300003,0.982627429000047],[33.192622036000046,0.971137547000069],[33.19327232000006,0.962225940000053],[33.191151072000025,0.955730112000026],[33.190324915000076,0.953812135000021],[33.200006150000036,0.950038867000046],[33.21304713100005,0.941099378000047],[33.21356263000007,0.938068510000051],[33.21023491200003,0.929681893000065],[33.20058069400005,0.923240799000041],[33.19801410500003,0.919112015000053],[33.21410627600005,0.90792297400003],[33.21329230900005,0.894789433000028],[33.209069756000076,0.891121773000066],[33.20824799900004,0.887174112000025],[33.21466450300005,0.883821589000036],[33.22281507500003,0.885504525000044],[33.22590814200004,0.884815538000055],[33.22633432300006,0.882248336000032],[33.22149813400006,0.868910710000023],[33.222651969000026,0.859863375000032],[33.24637691300006,0.853818339000043],[33.251769625000065,0.854840535000051],[33.25745317900004,0.850213017000044],[33.26498692300004,0.847006148000048],[33.26525766000003,0.863805386000024],[33.27110305700006,0.868102241000031],[33.27300339400006,0.868074961000048],[33.283250011000064,0.863414119000026],[33.283989630000065,0.868921334000049],[33.29181629100003,0.882695543000068],[33.29715601300006,0.905732198000067],[33.29601643400002,0.912565628000038],[33.29761971200003,0.923658545000023],[33.30366471700006,0.93314915600007],[33.30176052400003,0.937064203000034],[33.30242949400008,0.965442765000034],[33.306771783000045,0.984572937000053],[33.295722184000056,0.987424679000071],[33.282070902000044,0.988646626000047],[33.275241695000034,0.988303459000065],[33.27148581500006,0.985779525000055],[33.26767098100004,0.985553607000043],[33.26040281500008,0.992982039000026],[33.25400388300005,0.992873975000066],[33.25030272500004,0.995923181000023],[33.241804494000064,0.995589073000076],[33.23335239700003,0.98831569500004],[33.22574615900004,0.986787238000034],[33.20396230400007,1.006466476000071],[33.20207751800007,1.00953362000007]]]}},{"type":"Feature","properties":{"country":"Uganda","admin_level":"Admin2","admin1":"","admin2":"Nawanyago","name":"Nawanyago","verified":true,"source":"geoBoundaries UGA ADM4 (subcounty)","sourceName":"Nawanyago"},"geometry":{"type":"Polygon","coordinates":[[[33.11283657900003,0.793941019000044],[33.11233101100004,0.774852679000048],[33.10580586200007,0.762119405000021],[33.10651854400004,0.755676591000054],[33.10826610100003,0.753600964000043],[33.111132533000045,0.743477600000062],[33.115515326000036,0.73733113000003],[33.115631603000054,0.727910071000053],[33.11570480300003,0.727779063000071],[33.11582462800004,0.727564612000037],[33.121207825000056,0.716920150000021],[33.121089779000044,0.713800266000021],[33.12603334900007,0.706200132000049],[33.12792056200004,0.698373375000074],[33.13171794300007,0.692002881000064],[33.13442116600004,0.690438492000055],[33.145078185000045,0.687678745000028],[33.152776516000074,0.689587485000061],[33.15852497900005,0.694898064000029],[33.16894729000006,0.695096740000054],[33.17931108400006,0.692807387000073],[33.18918756200003,0.698367732000065],[33.18263987800003,0.720566555000062],[33.18019864900003,0.72490442700007],[33.175371580000046,0.728602992000049],[33.17527215400003,0.737302206000038],[33.17210173800004,0.738582885000028],[33.17236883100003,0.74025414700003],[33.165612011000064,0.745151358000044],[33.16636420200007,0.754086580000035],[33.163057276000075,0.75293636300006],[33.15980566300004,0.758002975000068],[33.15506084100008,0.766797131000033],[33.15163551300003,0.768335298000068],[33.14945228500005,0.773691382000038],[33.14731213600004,0.774161917000072],[33.14661767900003,0.777482304000046],[33.14452526600007,0.77773570200003],[33.13871143600005,0.786629407000021],[33.136597074000065,0.785788077000063],[33.131767713000045,0.788086252000028],[33.12912956100007,0.787823963000051],[33.12312265700007,0.792317048000029],[33.11545008600007,0.794631653000067],[33.11283657900003,0.793941019000044]]]}},{"type":"Feature","properties":{"country":"Uganda","admin_level":"Admin2","admin1":"","admin2":"Nawanyingi","name":"Nawanyingi","verified":true,"source":"geoBoundaries UGA ADM4 (subcounty)","sourceName":"Nawanyingi"},"geometry":{"type":"Polygon","coordinates":[[[33.458571418000076,0.620216965000054],[33.463098210000055,0.620662826000057],[33.47174418800006,0.624861951000071],[33.47616392700007,0.629023181000036],[33.48041249800008,0.628615671000034],[33.47869474400005,0.633510272000024],[33.479334151000046,0.641761099000064],[33.472961816000065,0.649982879000049],[33.477305175000026,0.657396769000059],[33.47722107800007,0.666556656000068],[33.476379044000055,0.678784989000064],[33.47196086500003,0.680437159000064],[33.473359870000024,0.687121430000047],[33.47801331200003,0.69215764300003],[33.47375143200003,0.699083614000074],[33.47381244600007,0.708085403000041],[33.46366597700006,0.714129865000075],[33.46055991500003,0.714406367000038],[33.45590563700006,0.718536584000049],[33.44549636200003,0.719956072000059],[33.43822024700006,0.718875554000022],[33.43206612000006,0.721388747000049],[33.429874502000075,0.718647679000071],[33.43265037400005,0.712024950000057],[33.43257967400007,0.708783294000057],[33.43057879600008,0.70337827700007],[33.427374937000025,0.700653260000024],[33.42844745700006,0.696661079000023],[33.425904728000035,0.688603407000073],[33.424901859000045,0.684599358000071],[33.426415736000024,0.682479533000048],[33.42500177900007,0.680632501000048],[33.42451960500006,0.670513546000052],[33.419199105000075,0.65589744600004],[33.42217235600003,0.655104467000058],[33.42753972200006,0.647052547000044],[33.43205430300003,0.63679643200004],[33.43211110800007,0.63363672600002],[33.44036033400005,0.631378600000062],[33.44246290700005,0.626655848000041],[33.45167041600007,0.632671426000059],[33.45383254300003,0.626142382000069],[33.456748051000034,0.620910644000048],[33.458571418000076,0.620216965000054]]]}},{"type":"Feature","properties":{"country":"Uganda","admin_level":"Admin2","admin1":"","admin2":"Wankole","name":"Wankole","verified":true,"source":"geoBoundaries UGA ADM4 (subcounty)","sourceName":"Wankole"},"geometry":{"type":"Polygon","coordinates":[[[33.15980566300004,0.758002975000068],[33.163057276000075,0.75293636300006],[33.16636420200007,0.754086580000035],[33.165612011000064,0.745151358000044],[33.17236883100003,0.74025414700003],[33.17210173800004,0.738582885000028],[33.17527215400003,0.737302206000038],[33.175371580000046,0.728602992000049],[33.18019864900003,0.72490442700007],[33.18263987800003,0.720566555000062],[33.18918756200003,0.698367732000065],[33.19096190500005,0.694507818000034],[33.200202198000056,0.690969943000027],[33.201671146000024,0.686039109000035],[33.21001517600007,0.681867950000026],[33.215139914000076,0.681379168000035],[33.22321797600006,0.68391203300007],[33.22011612800003,0.729609960000062],[33.226551366000024,0.734151367000038],[33.224622649000025,0.738430824000034],[33.23575403600006,0.746355644000062],[33.23652370700006,0.748563134000051],[33.22524142200007,0.75554829400005],[33.21045447200004,0.761823525000068],[33.20733859000006,0.763823204000062],[33.20811022000004,0.765325460000042],[33.20498529500003,0.768724846000055],[33.19629742800004,0.773825163000026],[33.19101922800007,0.774268723000034],[33.18417173700004,0.779239862000054],[33.17955661600007,0.778809151000075],[33.17392492700003,0.780654233000064],[33.16972466900006,0.784546083000066],[33.16490878900004,0.781731881000042],[33.163363580000066,0.778168203000064],[33.16304988200005,0.766855462000024],[33.15980566300004,0.758002975000068]]]}},{"type":"Feature","properties":{"country":"Uganda","admin_level":"Admin2","admin1":"","admin2":"Bulamagi","name":"Bulamagi","verified":false,"source":"geoBoundaries UGA ADM4 (subcounty) ALIAS","sourceName":"Bulamogi","note":"CSV Bulamagi mapped to geoBoundaries Bulamogi; verify spelling"},"geometry":{"type":"Polygon","coordinates":[[[33.48056386400003,0.554281081000056],[33.47964523500008,0.572710403000031],[33.47466759800005,0.581875591000028],[33.47079725400005,0.59696143900004],[33.46634794100004,0.607615147000047],[33.458571418000076,0.620216965000054],[33.456748051000034,0.620910644000048],[33.45383254300003,0.626142382000069],[33.45167041600007,0.632671426000059],[33.44246290700005,0.626655848000041],[33.44036033400005,0.631378600000062],[33.43211110800007,0.63363672600002],[33.43205430300003,0.63679643200004],[33.42753972200006,0.647052547000044],[33.42217235600003,0.655104467000058],[33.419199105000075,0.65589744600004],[33.41710866500006,0.653918990000022],[33.41584456100003,0.649145776000069],[33.417007252000076,0.643967574000044],[33.41419151500003,0.643721026000037],[33.416124301000025,0.636705175000031],[33.41484058100008,0.633137129000033],[33.41578246500006,0.625112501000046],[33.41278725500007,0.616665358000034],[33.416148580000026,0.603732188000038],[33.416209209000044,0.594408591000047],[33.42309597600007,0.578283959000032],[33.42226168000008,0.571925860000022],[33.42381898800005,0.564858930000071],[33.426671654000074,0.552156899000067],[33.44022885800007,0.552895228000068],[33.44838819000006,0.547866680000027],[33.45574087800003,0.552730440000062],[33.47565266100003,0.550874571000065],[33.48056386400003,0.554281081000056]]]}}]}